[{"OBJECT_NAME":"GITAI-SC1","OBJECT_ID":"2024-247M","EPOCH":"2026-03-09T05:02:48.475392","MEAN_MOTION":15.20258622,"ECCENTRICITY":0.00021257,"INCLINATION":45.001,"RA_OF_ASC_NODE":131.8038,"ARG_OF_PERICENTER":277.7935,"MEAN_ANOMALY":82.2703,"EPHEMERIS_TYPE":0,"CLASSIFICATION_TYPE":"U","NORAD_CAT_ID":62388,"ELEMENT_SET_NO":999,"REV_AT_EPOCH":6751,"BSTAR":0.00028634303,"MEAN_MOTION_DOT":6.055e-5,"MEAN_MOTION_DDOT":0},{"OBJECT_NAME":"SITRO-AIS-62","OBJECT_ID":"2025-313BA","EPOCH":"2026-03-09T22:28:04.503072","MEAN_MOTION":15.2313984,"ECCENTRICITY":0.00083903,"INCLINATION":97.4013,"RA_OF_ASC_NODE":145.3565,"ARG_OF_PERICENTER":355.0929,"MEAN_ANOMALY":5.0224,"EPHEMERIS_TYPE":0,"CLASSIFICATION_TYPE":"U","NORAD_CAT_ID":67296,"ELEMENT_SET_NO":999,"REV_AT_EPOCH":1086,"BSTAR":0.00055522855,"MEAN_MOTION_DOT":0.00013063,"MEAN_MOTION_DDOT":0}]
